satname,norad_id,inclination_deg,eccentricity,mean_motion_rev_per_day,perigee_km,apogee_km,l1,l2
STARLINK-1496,45780,53.0558,0.0001991,15.37492435,452.16709665342114,454.88746537011866,1 45780U 20038BC  26007.54649095  .00071006  00000+0  18954-2 0  9996,2 45780  53.0558 107.9390 0001991  26.9964 333.1142 15.37492435307579
STARLINK-1497,45781,53.0314,0.0006592,15.80157857,325.5718387399138,334.4158384375096,1 45781U 20038BD  26007.91668980  .00324977  00000+0  16401-2 0  9995,2 45781  53.0314  25.8754 0006592  47.1884 177.1442 15.80157857  6018
STARLINK-1513,45786,53.0561,0.0001235,15.0639467,546.3726111044152,548.0831762331509,1 45786U 20038BJ  26007.54323848  .00000592  00000+0  58646-4 0  9993,2 45786  53.0561 111.1175 0001235  82.7105 277.4024 15.06394670307549
STARLINK-1522,46027,53.0552,0.0001383,15.06401202,546.2500987877747,548.1656491799185,1 46027U 20055A   26007.78927303 -.00001517  00000+0 -82960-4 0  9999,2 46027  53.0552  40.0094 0001383  87.3014 272.8133 15.06401202299700
STARLINK-1523,46028,53.0553,0.0001538,15.06404606,546.1323248105691,548.2625576846976,1 46028U 20055B   26007.80402252  .00001237  00000+0  10191-3 0  9997,2 46028  53.0553  39.9470 0001538  88.0940 272.0225 15.06404606299722
STARLINK-1526,46029,53.0547,0.0001405,15.06422643,546.1691595515704,548.1151629958895,1 46029U 20055C   26007.59759857  .00006440  00000+0  45056-3 0  9999,2 46029  53.0547  40.8699 0001405 101.7054 258.4092 15.06422643299688
STARLINK-1555,46032,53.0549,0.0001339,15.06402893,546.275388339468,548.1299943088043,1 46032U 20055F   26007.78190118 -.00001586  00000+0 -87565-4 0  9993,2 46032  53.0549  40.0423 0001339  77.6483 282.4656 15.06402893299716
STARLINK-1556,46033,53.0539,0.0001521,15.06430029,546.0661933896508,548.1728564245268,1 46033U 20055G   26007.56442473  .00008695  00000+0  60141-3 0  9990,2 46033  53.0539  41.0194 0001521  77.5456 282.5703 15.06430029299653
STARLINK-1557,46034,53.055,0.0001337,15.06403193,546.2758540766399,548.1276896642376,1 46034U 20055H   26007.36906819  .00001015  00000+0  87007-4 0  9998,2 46034  53.0550  41.8964 0001337  88.3527 271.7615 15.06403193299625
STARLINK-1558,46035,53.053,0.0001157,15.06407384,546.387666924441,547.9901873439803,1 46035U 20055J   26007.77453032  .00001103  00000+0  92886-4 0  9997,2 46035  53.0530  40.0780 0001157  84.7860 275.3260 15.06407384299713
STARLINK-1560,46036,53.0536,0.0001388,15.06426368,546.1695178317495,548.0919721577593,1 46036U 20055K   26007.56073870  .00008199  00000+0  56828-3 0  9990,2 46036  53.0536  41.0372 0001388  97.2793 262.8354 15.06426368299682
STARLINK-1567,46038,53.055,9.8e-05,15.06401003,546.5298000320199,547.8871677468624,1 46038U 20055M   26007.30641141  .00005857  00000+0  41174-3 0  9992,2 46038  53.0550  42.1795 0000980  77.7752 282.3347 15.06401003299639
STARLINK-1569,46039,53.0544,0.0001241,15.06395858,546.3648152693604,548.0836899322558,1 46039U 20055N   26007.77820529 -.00002496  00000+0 -14873-3 0  9997,2 46039  53.0544  40.0603 0001241  87.5476 272.5655 15.06395858299702
STARLINK-1582,46043,53.0546,0.0001296,15.06427159,546.2308063798928,548.0258351510338,1 46043U 20055S   26007.78557148  .00008449  00000+0  58499-3 0  9991,2 46043  53.0546  40.0261 0001296  78.4070 281.7065 15.06427159299705
STARLINK-1591,46045,53.0531,0.0001296,15.06413216,546.2735331741815,548.0685730215437,1 46045U 20055U   26007.81138619  .00002589  00000+0  19257-3 0  9993,2 46045  53.0531  39.9110 0001296  87.3392 272.7745 15.06413216299699
STARLINK-1524,46047,53.0541,0.0001058,15.06409943,546.448385589636,547.913782896263,1 46047U 20055W   26007.76439286  .00002339  00000+0  17580-3 0  9993,2 46047  53.0541  30.1225 0001058  83.4086 276.7023 15.06409943299847
STARLINK-1527,46048,53.0556,0.0001504,15.06390745,546.1983466362699,548.2815000148075,1 46048U 20055X   26007.76072347 -.00000482  00000+0 -13482-4 0  9992,2 46048  53.0556  30.1384 0001504  77.7710 282.3448 15.06390745299827
STARLINK-1540,46051,53.0544,0.0001642,15.06407834,546.0504096698587,548.3246862514079,1 46051U 20055AA  26007.79388007  .00000382  00000+0  44512-4 0  9997,2 46051  53.0544  29.9896 0001642  90.2383 269.8794 15.06407834299867
STARLINK-1541,46052,53.055,0.0001359,15.06408562,546.2441654628738,548.1264680685708,1 46052U 20055AB  26007.77913891  .00002089  00000+0  15904-3 0  9999,2 46052  53.0550  30.0552 0001359  84.1768 275.9376 15.06408562299820
STARLINK-1543,46053,53.0538,0.0001319,15.064054,546.2815564736347,548.1084590572837,1 46053U 20055AC  26007.78282108  .00001654  00000+0  12992-3 0  9992,2 46053  53.0538  30.0391 0001319  85.2464 274.8676 15.06405400299851
STARLINK-1548,46054,53.054,0.000167,15.06415583,546.0072734659634,548.3203239327295,1 46054U 20055AD  26007.32577080  .00006638  00000+0  46391-3 0  9996,2 46054  53.0540  32.0900 0001670  88.2757 271.8424 15.06415583299784
STARLINK-1554,46055,53.0538,0.0001203,15.06395253,546.392985666037,548.0592280295441,1 46055U 20055AE  26007.77545456 -.00002584  00000+0 -15464-3 0  9993,2 46055  53.0538  30.0731 0001203  91.3621 268.7505 15.06395253299853
STARLINK-1564,46058,53.0544,0.0001576,15.06404939,546.1049881088875,548.2878532030782,1 46058U 20055AH  26007.78657644  .00001323  00000+0  10766-3 0  9998,2 46058  53.0544  30.4837 0001576  84.7055 275.4114 15.06404939299846
STARLINK-1570,46059,53.0541,0.0001154,15.0641277,546.3732392969077,547.9716007110455,1 46059U 20055AJ  26007.74965061 -.00002956  00000+0 -17958-3 0  9995,2 46059  53.0541  30.1908 0001154  89.8158 270.2963 15.06412770299805
STARLINK-1572,46060,53.0537,0.0001381,15.0641794,546.2001919250761,548.1129580104825,1 46060U 20055AK  26007.54691380  .00005862  00000+0  41191-3 0  9998,2 46060  53.0537  31.0979 0001381  92.6383 267.4764 15.06417940299782
STARLINK-1573,46061,53.0545,0.0001525,15.06420673,546.0920929024905,548.2043048881533,1 46061U 20055AL  26007.34421012  .00008188  00000+0  56761-3 0  9993,2 46061  53.0545  32.0453 0001525  74.6788 285.4369 15.06420673299787
STARLINK-1577,46063,53.0557,0.0001475,15.06404423,546.1765152006628,548.2194890262854,1 46063U 20055AN  26007.76807866  .00000138  00000+0  28146-4 0  9990,2 46063  53.0557  30.1044 0001475  87.8536 272.2622 15.06404423299846
STARLINK-1583,46064,53.0544,0.0001268,15.06408322,546.3079213612509,548.0641832873216,1 46064U 20055AP  26007.53586620  .00002039  00000+0  15572-3 0  9998,2 46064  53.0544  31.1485 0001268  85.9250 274.1884 15.06408322299815
